STARLINK-31798          
1 59635U 24082E   25213.30915146 -.00001056  00000+0 -28877-4 0  9995
2 59635  43.0018 304.7413 0001230 269.6783  90.3928 15.27569626 71081
STARLINK-31802          
1 59636U 24082F   25213.43221359  .00000344  00000+0  22044-4 0  9993
2 59636  43.0021 303.9468 0001145 266.5694  93.5027 15.27572399 71120
STARLINK-31791          
1 59637U 24082G   25213.33085664 -.00001571  00000+0 -47616-4 0  9997
2 59637  43.0010 304.0488 0001230 277.8735  82.1977 15.27565587 71117
STARLINK-31727          
1 59638U 24082H   25213.44378175 -.00000629  00000+0 -13345-4 0  9997
2 59638  43.0035 304.0323 0001591 286.8201  73.2477 15.27570517 71172
STARLINK-31807          
1 59639U 24082J   25213.30530095  .00004549  00000+0  17489-3 0  9999
2 59639  43.0013 304.7101 0000868 225.7311 134.3469 15.27548218 71094
STARLINK-31806          
1 59640U 24082K   25212.96037041 -.00000333  00000+0 -25933-5 0  9999
2 59640  43.0004 306.4261 0001065 263.2452  96.8278 15.27573212 71053
STARLINK-31804          
1 59641U 24082L   25212.60774244 -.00000486  00000+0 -81311-5 0  9995
2 59641  43.0015 308.0811 0001072 267.8209  92.2520 15.27579964 71008
STARLINK-31660          
1 59642U 24082M   25213.29478746 -.00000606  00000+0 -12519-4 0  9997
2 59642  43.0002 264.1064 0000850 265.2893  94.7861 15.27570507 71752
STARLINK-31800          
1 59643U 24082N   25213.42964416 -.00000040  00000+0  80844-5 0  9995
2 59643  43.0026 303.9086 0000958 277.3495  82.7248 15.27567373 71221
STARLINK-31789          
1 59644U 24082P   25213.27317328  .00040013  00000+0  14551-2 0  9995
2 59644  42.9976 304.4729 0000430 315.6328  44.4489 15.27593249 71302
STARLINK-31795          
1 59645U 24082Q   25213.25002315 -.00014292  00000+0 -51073-3 0  9994
2 59645  42.9997 246.1682 0001505 270.5837 204.6922 15.27585358 71803
STARLINK-31796          
1 59646U 24082R   25212.56034142 -.00000089  00000+0  62940-5 0  9996
2 59646  43.0023 308.5820 0000872 254.7269 105.3486 15.27576071 71154
STARLINK-31801          
1 59647U 24082S   25213.31686722 -.00001797  00000+0 -55823-4 0  9997
2 59647  43.0013 304.7949 0001248 260.9566  99.1145 15.27568374 71150
STARLINK-31790          
1 59648U 24082T   25213.58335648  .00259214  00000+0  24424-2 0  9993
2 59648  42.9931 232.9060 0014474  88.9372 188.7683 15.65364900 71920
STARLINK-31787          
1 59650U 24082V   25212.95651830 -.00007578  00000+0 -26627-3 0  9994
2 59650  43.0006 306.3929 0000119  53.7468 306.3395 15.27567817 71259
STARLINK-31277          
1 59651U 24082W   25212.96423504 -.00001514  00000+0 -45526-4 0  9995
2 59651  43.0041 306.4477 0000471 332.3931  27.6896 15.27565386 71258
STARLINK-31799          
1 59652U 24082X   25212.93612669 -.00001767  00000+0 -54723-4 0  9994
2 59652  43.0016 295.8334 0000969 282.5635  77.5108 15.27577915 71221
STARLINK-31764          
1 59653U 24082Y   25213.26932647 -.00000687  00000+0 -15470-4 0  9999
2 59653  43.0004 304.4435 0000780 264.5360  95.5403 15.27557372 71294
STARLINK-31589          
1 59654U 24084A   25213.00082425 -.00000174  00000+0  31977-5 0  9995
2 59654  43.0025 207.9622 0001827 276.0046  84.0597 15.27573749 70657
STARLINK-31665          
1 59655U 24084B   25212.68207161 -.00000621  00000+0 -13051-4 0  9995
2 59655  42.9989 206.4102 0000740 272.0940  87.9827 15.27574860 70613
STARLINK-31912          
1 59656U 24084C   25213.02907876  .00002746  00000+0  10924-3 0  9998
2 59656  43.0006 208.1734 0001434 254.8207 105.2486 15.27595466 70598
STARLINK-31904          
1 59657U 24084D   25213.14957371 -.00000506  00000+0 -88904-5 0  9996
2 59657  42.9998 207.3555 0000486 248.2791 111.8009 15.27573789 70576
STARLINK-31858          
1 59658U 24084E   25212.99309810  .00000484  00000+0  27105-4 0  9996
2 59658  43.0005 207.9012 0001365 267.6339  92.4357 15.27575611 70590
STARLINK-31881          
1 59659U 24084F   25213.46156376  .00000289  00000+0  20031-4 0  9991
2 59659  43.0003 201.9349 0001106 273.2687  86.8038 15.27582093 70706
STARLINK-31885          
1 59660U 24084G   25213.01671378 -.00001309  00000+0 -38053-4 0  9997
2 59660  43.0001 204.6180 0000642 255.5226 104.5555 15.27574724 70631
STARLINK-31880          
1 59661U 24084H   25212.67564492  .00002000  00000+0  82175-4 0  9998
2 59661  42.9994 206.3588 0001494 272.0720  87.9960 15.27576774 70610
STARLINK-31886          
1 59662U 24084J   25212.04442848 -.00000109  00000+0  55546-5 0  9992
2 59662  43.0022 213.6816 0001034 283.3404  76.7333 15.27572591 70471
STARLINK-31909          
1 59663U 24084K   25213.46106793  .00000215  00000+0  17313-4 0  9992
2 59663  42.9999 205.4384 0000657 263.2284  96.8493 15.27602047 70666
STARLINK-31910          
1 59664U 24084L   25213.19308358  .00004515  00000+0  17335-3 0  9994
2 59664  43.0004 206.8145 0001032 267.2667  92.8066 15.27607005 70620
STARLINK-31902          
1 59666U 24084N   25213.16372531 -.00002096  00000+0 -66711-4 0  9994
2 59666  43.0016 207.4614 0001001 265.5635  94.5102 15.27558576 70612
STARLINK-31913          
1 59667U 24084P   25212.99872399 -.00000856  00000+0 -21584-4 0  9993
2 59667  43.0008 204.4821 0001057 271.7602  88.3128 15.27574432 70635
STARLINK-31866          
1 59668U 24084Q   25213.30557044  .00002833  00000+0  11241-3 0  9990
2 59668  43.0010 199.0041 0001234 275.4808  84.5902 15.27585878 70799
STARLINK-31917          
1 59669U 24084R   25213.47264294 -.00002409  00000+0 -78010-4 0  9990
2 59669  42.9998 205.4734 0000932 259.8566 100.2180 15.27590764 70665
STARLINK-31860          
1 59670U 24084S   25213.14363083  .00000636  00000+0  32640-4 0  9999
2 59670  43.0005 203.8467 0001028 274.9499  85.1235 15.27572061 70654
STARLINK-31854          
1 59671U 24084T   25213.29590338  .00000348  00000+0  22179-4 0  9997
2 59671  43.0014 173.4322 0001161 271.7747  88.2971 15.27571857 71021
STARLINK-31842          
1 59672U 24084U   25213.15134139 -.00000041  00000+0  80265-5 0  9998
2 59672  43.0015 203.9059 0000975 277.8065  82.2676 15.27574757 70657
STARLINK-31871          
1 59673U 24084V   25213.25002315  .00007510  00000+0  28224-3 0  9992
2 59673  42.9991 206.6281 0001246 270.2214 346.5836 15.27569022 70700
STARLINK-31875          
1 59674U 24084W   25213.46284177 -.00000930  00000+0 -24211-4 0  9998
2 59674  43.0046 201.9428 0003943 264.2031  95.8371 15.27578057 70774
STARLINK-31877          
1 59675U 24084X   25213.08803766 -.00000788  00000+0 -19143-4 0  9997
2 59675  42.9990 207.7457 0000710 264.4386  95.6385 15.27577161 70601
STARLINK-31884          
1 59676U 24084Y   25213.33802540  .00000165  00000+0  15504-4 0  9999
2 59676  42.9996 206.2063 0001058 272.3655  87.7076 15.27574974 70718
STARLINK-32108          
1 59682U 24086A   25212.51090046  .00000972  00000+0  44861-4 0  9991
2 59682  43.0038 232.6041 0001657 277.1947  82.8717 15.27579136 70167
STARLINK-32080          
1 59683U 24086B   25213.05584367  .00001035  00000+0  47153-4 0  9994
2 59683  43.0004 229.8171 0001296 281.9684  78.1022 15.27572699 70246
STARLINK-32091          
1 59684U 24086C   25213.36867325 -.00000729  00000+0 -16988-4 0  9990
2 59684  42.9990 216.6508 0001214 279.8630  80.2084 15.27566761 70429
STARLINK-32085          
1 59685U 24086D   25212.49854218  .00000883  00000+0  41624-4 0  9995
2 59685  43.0059 229.0836 0001811 281.9756  78.0893 15.27572001 70287
STARLINK-32100          
1 59686U 24086E   25213.04314891 -.00002433  00000+0 -78943-4 0  9995
2 59686  43.0039 207.8784 0001818 277.8344  82.2302 15.27566519 70533
STARLINK-32089          
1 59687U 24086F   25212.41773691 -.00000096  00000+0  60467-5 0  9998
2 59687  42.9989 229.3371 0001019 273.3707  86.7028 15.27576498 70276
STARLINK-32103          
1 59688U 24086G   25213.07177240 -.00000057  00000+0  74418-5 0  9998
2 59688  43.0007 215.2638 0001151 260.1174  99.9547 15.27580426 70413
STARLINK-32105          
1 59689U 24086H   25212.41131344 -.00000340  00000+0 -28196-5 0  9999
2 59689  42.9994 229.2887 0001057 273.2163  86.8567 15.27577871 70277
STARLINK-32106          
1 59690U 24086J   25213.48787037  .00001233  00000+0  54331-4 0  9994
2 59690  43.0002 215.8255 0001111 273.3653  86.7071 15.27581270 70443
STARLINK-32090          
1 59691U 24086K   25213.11737886 -.00000075  00000+0  68042-5 0  9991
2 59691  43.0001 229.4413 0001023 241.4610 118.6139 15.27573973 70149
STARLINK-32088          
1 59693U 24086M   25213.16864780 -.00000461  00000+0 -72420-5 0  9997
2 59693  43.0004 217.7292 0001195 263.5731  96.4984 15.27578157 70395
STARLINK-32107          
1 59694U 24086N   25213.17040092  .00000685  00000+0  34428-4 0  9992
2 59694  43.0003 225.5252 0001105 301.3829  58.6915 15.27574750 70140
STARLINK-32104          
1 59695U 24086P   25213.03881383  .00000961  00000+0  44439-4 0  9994
2 59695  43.0004 222.7252 0001440 262.7110  97.3578 15.27569321 70329
STARLINK-32094          
1 59696U 24086Q   25213.43582733 -.00002710  00000+0 -89049-4 0  9998
2 59696  43.0012 224.0721 0001543 268.2909  91.7766 15.27556738 70130
STARLINK-32099          
1 59697U 24086R   25212.08823199 -.00002416  00000+0 -78301-4 0  9995
2 59697  43.0000 231.1626 0000714 282.4626  77.6146 15.27583205 70228
STARLINK-32096          
1 59698U 24086S   25213.14855582 -.00001438  00000+0 -42768-4 0  9996
2 59698  43.0018 225.3578 0001072 275.5035  84.5695 15.27574391 70305
STARLINK-32102          
1 59699U 24086T   25212.42159359  .00000165  00000+0  15522-4 0  9998
2 59699  43.0001 229.3662 0000934 272.1899  87.8845 15.27576941 70275
STARLINK-32092          
1 59700U 24086U   25212.43958937 -.00000016  00000+0  89327-5 0  9992
2 59700  42.9992 229.4993 0000700 338.4984  21.5838 15.27575464 70271
STARLINK-32093          
1 59701U 24086V   25213.15626930 -.00001323  00000+0 -38572-4 0  9996
2 59701  43.0025 225.4146 0001320 281.3139  78.7564 15.27573046 70302
